CCSDS_OMM_VERS = 2.0
CREATION_DATE  = 
ORIGINATOR     = 

OBJECT_NAME    = STARLINK-36750
OBJECT_ID      = 2026-025C
CENTER_NAME    = EARTH
REF_FRAME      = TEME
TIME_SYSTEM    = UTC
MEAN_ELEMENT_THEORY = SGP/SGP4

EPOCH          = 2026-02-24T20:00:00.999360
MEAN_MOTION    = 15.80848584
ECCENTRICITY   = .000131
INCLINATION    = 97.2836
RA_OF_ASC_NODE = 166.7461
ARG_OF_PERICENTER = 94.9007
MEAN_ANOMALY   = 286.9442

EPHEMERIS_TYPE = 0
CLASSIFICATION_TYPE = U
NORAD_CAT_ID   = 67695
ELEMENT_SET_NO = 999
REV_AT_EPOCH   = 378
BSTAR          = -.33154E-3
MEAN_MOTION_DOT = -.63283E-3
MEAN_MOTION_DDOT = 0

CCSDS_OMM_VERS = 2.0
CREATION_DATE  = 
ORIGINATOR     = 

OBJECT_NAME    = STARLINK-36401
OBJECT_ID      = 2026-025D
CENTER_NAME    = EARTH
REF_FRAME      = TEME
TIME_SYSTEM    = UTC
MEAN_ELEMENT_THEORY = SGP/SGP4

EPOCH          = 2026-02-24T20:00:00.999360
MEAN_MOTION    = 15.80862748
ECCENTRICITY   = .0001206
INCLINATION    = 97.2837
RA_OF_ASC_NODE = 166.7495
ARG_OF_PERICENTER = 75.8603
MEAN_ANOMALY   = 314.7936

EPHEMERIS_TYPE = 0
CLASSIFICATION_TYPE = U
NORAD_CAT_ID   = 67696
ELEMENT_SET_NO = 999
REV_AT_EPOCH   = 378
BSTAR          = -.41421E-3
MEAN_MOTION_DOT = -.78936E-3
MEAN_MOTION_DDOT = 0

CCSDS_OMM_VERS = 2.0
CREATION_DATE  = 
ORIGINATOR     = 

OBJECT_NAME    = STARLINK-36704
OBJECT_ID      = 2026-025E
CENTER_NAME    = EARTH
REF_FRAME      = TEME
TIME_SYSTEM    = UTC
MEAN_ELEMENT_THEORY = SGP/SGP4

EPOCH          = 2026-02-24T20:00:00.999360
MEAN_MOTION    = 15.75137667
ECCENTRICITY   = .0001735
INCLINATION    = 97.2840
RA_OF_ASC_NODE = 166.7531
ARG_OF_PERICENTER = 64.9797
MEAN_ANOMALY   = 333.7805

EPHEMERIS_TYPE = 0
CLASSIFICATION_TYPE = U
NORAD_CAT_ID   = 67697
ELEMENT_SET_NO = 999
REV_AT_EPOCH   = 378
BSTAR          = .32636E-5
MEAN_MOTION_DOT = .356E-5
MEAN_MOTION_DDOT = 0

CCSDS_OMM_VERS = 2.0
CREATION_DATE  = 
ORIGINATOR     = 

OBJECT_NAME    = STARLINK-36697
OBJECT_ID      = 2026-025F
CENTER_NAME    = EARTH
REF_FRAME      = TEME
TIME_SYSTEM    = UTC
MEAN_ELEMENT_THEORY = SGP/SGP4

EPOCH          = 2026-02-24T20:00:00.999360
MEAN_MOTION    = 15.80843000
ECCENTRICITY   = .0001623
INCLINATION    = 97.2837
RA_OF_ASC_NODE = 166.7609
ARG_OF_PERICENTER = 96.6948
MEAN_ANOMALY   = 321.8752

EPHEMERIS_TYPE = 0
CLASSIFICATION_TYPE = U
NORAD_CAT_ID   = 67698
ELEMENT_SET_NO = 999
REV_AT_EPOCH   = 373
BSTAR          = -.81691E-4
MEAN_MOTION_DOT = -.15781E-3
MEAN_MOTION_DDOT = 0

CCSDS_OMM_VERS = 2.0
CREATION_DATE  = 
ORIGINATOR     = 

OBJECT_NAME    = STARLINK-36716
OBJECT_ID      = 2026-025G
CENTER_NAME    = EARTH
REF_FRAME      = TEME
TIME_SYSTEM    = UTC
MEAN_ELEMENT_THEORY = SGP/SGP4

EPOCH          = 2026-02-24T20:00:00.999360
MEAN_MOTION    = 15.80836213
ECCENTRICITY   = .0001212
INCLINATION    = 97.2838
RA_OF_ASC_NODE = 166.7653
ARG_OF_PERICENTER = 95.2852
MEAN_ANOMALY   = 333.1253

EPHEMERIS_TYPE = 0
CLASSIFICATION_TYPE = U
NORAD_CAT_ID   = 67699
ELEMENT_SET_NO = 999
REV_AT_EPOCH   = 394
BSTAR          = -.27256E-4
MEAN_MOTION_DOT = -.5364E-4
MEAN_MOTION_DDOT = 0

CCSDS_OMM_VERS = 2.0
CREATION_DATE  = 
ORIGINATOR     = 

OBJECT_NAME    = STARLINK-36712
OBJECT_ID      = 2026-025H
CENTER_NAME    = EARTH
REF_FRAME      = TEME
TIME_SYSTEM    = UTC
MEAN_ELEMENT_THEORY = SGP/SGP4

EPOCH          = 2026-02-24T20:00:00.999360
MEAN_MOTION    = 15.81278965
ECCENTRICITY   = .0001612
INCLINATION    = 97.2840
RA_OF_ASC_NODE = 166.7686
ARG_OF_PERICENTER = 78.5988
MEAN_ANOMALY   = 359.3836

EPHEMERIS_TYPE = 0
CLASSIFICATION_TYPE = U
NORAD_CAT_ID   = 67700
ELEMENT_SET_NO = 999
REV_AT_EPOCH   = 373
BSTAR          = -.93887E-2
MEAN_MOTION_DOT = -.1607331E-1
MEAN_MOTION_DDOT = 0

CCSDS_OMM_VERS = 2.0
CREATION_DATE  = 
ORIGINATOR     = 

OBJECT_NAME    = STARLINK-36713
OBJECT_ID      = 2026-025J
CENTER_NAME    = EARTH
REF_FRAME      = TEME
TIME_SYSTEM    = UTC
MEAN_ELEMENT_THEORY = SGP/SGP4

EPOCH          = 2026-02-24T20:00:00.999360
MEAN_MOTION    = 15.77478635
ECCENTRICITY   = .0001947
INCLINATION    = 97.2836
RA_OF_ASC_NODE = 166.7694
ARG_OF_PERICENTER = 65.7686
MEAN_ANOMALY   = 16.9078

EPHEMERIS_TYPE = 0
CLASSIFICATION_TYPE = U
NORAD_CAT_ID   = 67701
ELEMENT_SET_NO = 999
REV_AT_EPOCH   = 394
BSTAR          = -.14573E-1
MEAN_MOTION_DOT = -.2068235E-1
MEAN_MOTION_DDOT = 0

CCSDS_OMM_VERS = 2.0
CREATION_DATE  = 
ORIGINATOR     = 

OBJECT_NAME    = STARLINK-36695
OBJECT_ID      = 2026-025K
CENTER_NAME    = EARTH
REF_FRAME      = TEME
TIME_SYSTEM    = UTC
MEAN_ELEMENT_THEORY = SGP/SGP4

EPOCH          = 2026-02-24T20:00:00.999360
MEAN_MOTION    = 15.75101107
ECCENTRICITY   = .0001367
INCLINATION    = 97.2794
RA_OF_ASC_NODE = 166.7644
ARG_OF_PERICENTER = 81.8036
MEAN_ANOMALY   = 350.9608

EPHEMERIS_TYPE = 0
CLASSIFICATION_TYPE = U
NORAD_CAT_ID   = 67702
ELEMENT_SET_NO = 999
REV_AT_EPOCH   = 378
BSTAR          = .74689E-3
MEAN_MOTION_DOT = .112317E-2
MEAN_MOTION_DDOT = 0

CCSDS_OMM_VERS = 2.0
CREATION_DATE  = 
ORIGINATOR     = 

OBJECT_NAME    = STARLINK-36630
OBJECT_ID      = 2026-025L
CENTER_NAME    = EARTH
REF_FRAME      = TEME
TIME_SYSTEM    = UTC
MEAN_ELEMENT_THEORY = SGP/SGP4

EPOCH          = 2026-02-24T20:00:00.999360
MEAN_MOTION    = 15.80761881
ECCENTRICITY   = .0001476
INCLINATION    = 97.2829
RA_OF_ASC_NODE = 166.7776
ARG_OF_PERICENTER = 95.0153
MEAN_ANOMALY   = 8.7706

EPHEMERIS_TYPE = 0
CLASSIFICATION_TYPE = U
NORAD_CAT_ID   = 67703
ELEMENT_SET_NO = 999
REV_AT_EPOCH   = 378
BSTAR          = .22369E-3
MEAN_MOTION_DOT = .4281E-3
MEAN_MOTION_DDOT = 0

CCSDS_OMM_VERS = 2.0
CREATION_DATE  = 
ORIGINATOR     = 

OBJECT_NAME    = STARLINK-36338
OBJECT_ID      = 2026-025M
CENTER_NAME    = EARTH
REF_FRAME      = TEME
TIME_SYSTEM    = UTC
MEAN_ELEMENT_THEORY = SGP/SGP4

EPOCH          = 2026-02-24T20:00:00.999360
MEAN_MOTION    = 15.80839107
ECCENTRICITY   = .0001191
INCLINATION    = 97.2832
RA_OF_ASC_NODE = 166.7824
ARG_OF_PERICENTER = 110.9238
MEAN_ANOMALY   = 3.4191

EPHEMERIS_TYPE = 0
CLASSIFICATION_TYPE = U
NORAD_CAT_ID   = 67704
ELEMENT_SET_NO = 999
REV_AT_EPOCH   = 383
BSTAR          = .55909E-4
MEAN_MOTION_DOT = .10591E-3
MEAN_MOTION_DDOT = 0

CCSDS_OMM_VERS = 2.0
CREATION_DATE  = 
ORIGINATOR     = 

OBJECT_NAME    = STARLINK-36316
OBJECT_ID      = 2026-025N
CENTER_NAME    = EARTH
REF_FRAME      = TEME
TIME_SYSTEM    = UTC
MEAN_ELEMENT_THEORY = SGP/SGP4

EPOCH          = 2026-02-24T20:00:00.999360
MEAN_MOTION    = 15.78578004
ECCENTRICITY   = .0001934
INCLINATION    = 97.2808
RA_OF_ASC_NODE = 166.7900
ARG_OF_PERICENTER = 73.8302
MEAN_ANOMALY   = 60.0917

EPHEMERIS_TYPE = 0
CLASSIFICATION_TYPE = U
NORAD_CAT_ID   = 67705
ELEMENT_SET_NO = 999
REV_AT_EPOCH   = 383
BSTAR          = -.12877E-1
MEAN_MOTION_DOT = -.1940319E-1
MEAN_MOTION_DDOT = 0

CCSDS_OMM_VERS = 2.0
CREATION_DATE  = 
ORIGINATOR     = 

OBJECT_NAME    = STARLINK-36707
OBJECT_ID      = 2026-025P
CENTER_NAME    = EARTH
REF_FRAME      = TEME
TIME_SYSTEM    = UTC
MEAN_ELEMENT_THEORY = SGP/SGP4

EPOCH          = 2026-02-24T20:00:00.999360
MEAN_MOTION    = 15.80838746
ECCENTRICITY   = .0000865
INCLINATION    = 97.2833
RA_OF_ASC_NODE = 166.7959
ARG_OF_PERICENTER = 82.4394
MEAN_ANOMALY   = 65.2199

EPHEMERIS_TYPE = 0
CLASSIFICATION_TYPE = U
NORAD_CAT_ID   = 67706
ELEMENT_SET_NO = 999
REV_AT_EPOCH   = 362
BSTAR          = .20313E-3
MEAN_MOTION_DOT = .3898E-3
MEAN_MOTION_DDOT = 0

CCSDS_OMM_VERS = 2.0
CREATION_DATE  = 
ORIGINATOR     = 

OBJECT_NAME    = STARLINK-36645
OBJECT_ID      = 2026-025Q
CENTER_NAME    = EARTH
REF_FRAME      = TEME
TIME_SYSTEM    = UTC
MEAN_ELEMENT_THEORY = SGP/SGP4

EPOCH          = 2026-02-24T20:00:00.999360
MEAN_MOTION    = 15.75542175
ECCENTRICITY   = .0001349
INCLINATION    = 97.2800
RA_OF_ASC_NODE = 166.7831
ARG_OF_PERICENTER = 83.7080
MEAN_ANOMALY   = 32.8673

EPHEMERIS_TYPE = 0
CLASSIFICATION_TYPE = U
NORAD_CAT_ID   = 67707
ELEMENT_SET_NO = 999
REV_AT_EPOCH   = 339
BSTAR          = -.36569E-2
MEAN_MOTION_DOT = -.521534E-2
MEAN_MOTION_DDOT = 0

CCSDS_OMM_VERS = 2.0
CREATION_DATE  = 
ORIGINATOR     = 

OBJECT_NAME    = STARLINK-36287
OBJECT_ID      = 2026-025R
CENTER_NAME    = EARTH
REF_FRAME      = TEME
TIME_SYSTEM    = UTC
MEAN_ELEMENT_THEORY = SGP/SGP4

EPOCH          = 2026-02-24T20:00:00.999360
MEAN_MOTION    = 15.80835954
ECCENTRICITY   = .0001363
INCLINATION    = 97.2834
RA_OF_ASC_NODE = 166.7984
ARG_OF_PERICENTER = 104.0168
MEAN_ANOMALY   = 53.6831

EPHEMERIS_TYPE = 0
CLASSIFICATION_TYPE = U
NORAD_CAT_ID   = 67708
ELEMENT_SET_NO = 999
REV_AT_EPOCH   = 394
BSTAR          = -.79926E-4
MEAN_MOTION_DOT = -.15438E-3
MEAN_MOTION_DDOT = 0

CCSDS_OMM_VERS = 2.0
CREATION_DATE  = 
ORIGINATOR     = 

OBJECT_NAME    = STARLINK-36698
OBJECT_ID      = 2026-025S
CENTER_NAME    = EARTH
REF_FRAME      = TEME
TIME_SYSTEM    = UTC
MEAN_ELEMENT_THEORY = SGP/SGP4

EPOCH          = 2026-02-24T20:00:00.999360
MEAN_MOTION    = 15.80777444
ECCENTRICITY   = .0001756
INCLINATION    = 97.2808
RA_OF_ASC_NODE = 166.8153
ARG_OF_PERICENTER = 69.2265
MEAN_ANOMALY   = 127.8810

EPHEMERIS_TYPE = 0
CLASSIFICATION_TYPE = U
NORAD_CAT_ID   = 67709
ELEMENT_SET_NO = 999
REV_AT_EPOCH   = 378
BSTAR          = .43943E-3
MEAN_MOTION_DOT = .84704E-3
MEAN_MOTION_DDOT = 0

